      2.10          N: GNSS NAV DATA                        RINEX VERSION / TYPE
fic2rin                                 09/29/2020 00:17:41 PGM / RUN BY / DATE
                                                            END OF HEADER
20 20  9 28  4  0  0.0 5.265898071229e-04-1.136868377216e-13 0.000000000000e+00
    8.700000000000e+01-8.612500000000e+01 5.090569185497e-09-2.814755328783e+00
   -4.300847649574e-06 5.673268227838e-03 5.118548870087e-06 5.153662424088e+03
    1.008000000000e+05-7.823109626770e-08 1.723146142856e+00 4.284083843231e-08
    9.350433409026e-01 2.652187500000e+02 2.716323282271e+00-8.417493479533e-09
   -1.835790753768e-10 1.000000000000e+00 2.125000000000e+03 0.000000000000e+00
    2.400000000000e+00 0.000000000000e+00-8.847564458847e-09 8.700000000000e+01
    9.360000000000e+04 4.000000000000e+00
17 20  9 28  4  0  0.0 3.321263939142e-04 5.229594535194e-12 0.000000000000e+00
    5.300000000000e+01 6.984375000000e+01 3.930878022562e-09-2.504557181545e-01
    3.721565008163e-06 1.345337426756e-02 1.027062535286e-05 5.153765144348e+03
    1.008000000000e+05-1.434236764908e-07-1.753489670740e-01 6.519258022308e-08
    9.838286876596e-01 1.975937500000e+02-1.634684206359e+00-7.969974838586e-09
    3.178703834345e-11 1.000000000000e+00 2.125000000000e+03 0.000000000000e+00
    2.400000000000e+00 0.000000000000e+00-1.117587089539e-08 5.300000000000e+01
    9.360000000000e+04 4.000000000000e+00
23 20  9 28  4  0  0.0 6.476417183876e-05 2.387423592154e-12 0.000000000000e+00
    1.980000000000e+02-8.887500000000e+01 4.489829876579e-09-2.156359200308e+00
   -4.505738615990e-06 1.044272095896e-03 6.206333637238e-06 5.153641647339e+03
    1.008000000000e+05-1.303851604462e-08 1.835936462603e+00 1.676380634308e-08
    9.614472581946e-01 2.574375000000e+02 1.920467005719e+00-8.149268021152e-09
   -2.060800126311e-10 1.000000000000e+00 2.125000000000e+03 0.000000000000e+00
    9.999999999999e+99 6.300000000000e+01-8.381903171539e-09 9.660000000000e+02
    9.360000000000e+04 4.000000000000e+00
 8 20  9 28  3 59 44.0-4.953378811479e-05-1.364242052659e-12 0.000000000000e+00
    7.000000000000e+01 6.859375000000e+01 4.101956577242e-09-1.795805088204e-04
    3.382563591003e-06 5.512393778190e-03 1.037679612637e-05 5.153733175278e+03
    1.007840000000e+05 1.154839992523e-07-2.497659917790e-01-9.313225746155e-09
    9.693505282890e-01 1.846562500000e+02-6.549995677040e-02-7.899614764949e-09
   -8.750364487804e-11 1.000000000000e+00 2.125000000000e+03 0.000000000000e+00
    2.400000000000e+00 0.000000000000e+00 5.122274160385e-09 7.000000000000e+01
    9.639000000000e+04 4.000000000000e+00
 8 20  9 28  5 59 44.0-4.954403266311e-05-1.364242052659e-12 0.000000000000e+00
    7.100000000000e+01 6.131250000000e+01 4.203032216020e-09 1.050084165546e+00
    3.334134817123e-06 5.512076662853e-03 1.002103090286e-05 5.153732013702e+03
    1.079840000000e+05 4.284083843231e-08-2.498226710770e-01 5.215406417847e-08
    9.693499153263e-01 1.870937500000e+02-6.562203728411e-02-7.870327830745e-09
   -1.221479450951e-10 1.000000000000e+00 2.125000000000e+03 0.000000000000e+00
    2.400000000000e+00 0.000000000000e+00 5.122274160385e-09 7.100000000000e+01
    1.008000000000e+05 4.000000000000e+00
 2 20  9 28  6  0  0.0-5.224011838436e-04-5.115907697473e-12 0.000000000000e+00
    1.500000000000e+01 5.596875000000e+01 4.936634202058e-09-1.032147632726e+00
    3.160908818245e-06 1.985544082709e-02 3.667548298836e-06 5.153782911301e+03
    1.080000000000e+05-3.203749656677e-07 7.422003678759e-01 3.036111593246e-07
    9.604576087432e-01 3.141250000000e+02-1.601778270666e+00-8.739649755778e-09
    1.700070814773e-10 1.000000000000e+00 2.125000000000e+03 0.000000000000e+00
    2.400000000000e+00 0.000000000000e+00-1.769512891769e-08 1.500000000000e+01
    1.008000000000e+05 4.000000000000e+00
 1 20  9 28  6  0  0.0 3.515370190144e-05-1.250555214938e-12 0.000000000000e+00
    5.500000000000e+01 3.250000000000e+01 4.270535027783e-09-1.257514800288e+00
    1.762062311172e-06 1.008052472025e-02 2.985820174217e-06 5.153698451996e+03
    1.080000000000e+05 2.253800630569e-07 8.210244069621e-01 4.097819328308e-08
    9.815063213008e-01 3.334687500000e+02 8.294030961738e-01-8.184269479103e-09
    9.893269237232e-11 1.000000000000e+00 2.125000000000e+03 0.000000000000e+00
    2.400000000000e+00 0.000000000000e+00 5.122274160385e-09 5.500000000000e+01
    1.008000000000e+05 4.000000000000e+00
 6 20  9 28  6  0  0.0-3.292788751423e-04-2.955857780762e-12 0.000000000000e+00
    3.000000000000e+00 4.446875000000e+01 4.361967407737e-09-8.757542262444e-01
    2.346932888031e-06 1.805946463719e-03 3.073364496231e-06 5.153619310379e+03
    1.080000000000e+05-3.725290298462e-08 8.127731583959e-01 2.421438694000e-08
    9.810389657879e-01 3.321562500000e+02-1.139107703128e+00-8.261058391955e-09
    1.614352958566e-10 1.000000000000e+00 2.125000000000e+03 0.000000000000e+00
    2.400000000000e+00 0.000000000000e+00 4.190951585770e-09 3.000000000000e+00
    1.008000000000e+05 4.000000000000e+00
 5 20  9 28  6  0  0.0-2.211611717939e-05-9.094947017729e-13 0.000000000000e+00
    8.500000000000e+01-1.051562500000e+02 4.706981778970e-09 1.635889674263e+00
   -5.500391125679e-06 6.107517518103e-03 5.848705768585e-06 5.153742761612e+03
    1.080000000000e+05-2.980232238770e-08 1.827468162344e+00-6.332993507385e-08
    9.535072425239e-01 2.679062500000e+02 8.783551482976e-01-8.318560787161e-09
   -3.675153084878e-10 1.000000000000e+00 2.125000000000e+03 0.000000000000e+00
    2.400000000000e+00 0.000000000000e+00-1.117587089539e-08 8.500000000000e+01
    1.008000000000e+05 4.000000000000e+00
 3 20  9 28  6  0  0.0-3.113644197583e-04-1.045918907039e-11 0.000000000000e+00
    7.800000000000e+01-1.066562500000e+02 4.267677765909e-09-2.423670812715e+00
   -5.401670932770e-06 3.239341895096e-03 6.765127182007e-06 5.153745073318e+03
    1.080000000000e+05-2.421438694000e-08 1.861064482726e+00-5.587935447693e-09
    9.666050509117e-01 2.514375000000e+02 8.802042313993e-01-8.026762918323e-09
   -2.971552348511e-10 1.000000000000e+00 2.125000000000e+03 0.000000000000e+00
    2.400000000000e+00 0.000000000000e+00 1.862645149231e-09 7.800000000000e+01
    1.008000000000e+05 4.000000000000e+00
 7 20  9 28  6  0  0.0-3.819456323981e-04-8.071765478235e-12 0.000000000000e+00
    3.300000000000e+01 3.603125000000e+01 5.027352266544e-09-1.945984611167e+00
    1.644715666771e-06 1.421220297925e-02 4.991888999939e-06 5.153633623123e+03
    1.080000000000e+05 1.601874828339e-07-2.318375933686e+00-1.024454832077e-07
    9.525880750026e-01 2.741875000000e+02-2.364020788852e+00-8.154268229431e-09
    4.685909472653e-10 1.000000000000e+00 2.125000000000e+03 0.000000000000e+00
    2.400000000000e+00 0.000000000000e+00-1.117587089539e-08 3.300000000000e+01
    1.008000000000e+05 4.000000000000e+00
 4 20  9 28  6  0  0.0-1.395745202899e-04-4.092726157978e-12 0.000000000000e+00
    5.200000000000e+01-7.062500000000e+00 4.233033465692e-09 2.476319688083e-01
   -3.334134817123e-07 8.356344187632e-04 1.159682869911e-05 5.153633094788e+03
    1.080000000000e+05 2.607703208923e-08 2.940502103921e+00 6.705522537231e-08
    9.606104705162e-01 1.555312500000e+02-2.896468186349e+00-7.834612057325e-09
    4.010881355022e-10 1.000000000000e+00 2.125000000000e+03 0.000000000000e+00
    2.400000000000e+00 0.000000000000e+00-4.190951585770e-09 8.200000000000e+02
    1.008000000000e+05 4.000000000000e+00
 9 20  9 28  6  0  0.0-2.924622967839e-04-5.456968210638e-12 0.000000000000e+00
    1.800000000000e+01-1.546875000000e+01 4.359824461332e-09 1.338260421770e+00
   -7.655471563339e-07 1.808005385101e-03 1.182407140732e-05 5.153653446198e+03
    1.080000000000e+05 3.725290298462e-08 2.891631700181e+00-1.490116119385e-08
    9.533642393559e-01 1.463437500000e+02 1.759135157920e+00-7.899971922683e-09
    3.628722579432e-10 1.000000000000e+00 2.125000000000e+03 0.000000000000e+00
    2.400000000000e+00 0.000000000000e+00 1.396983861923e-09 1.800000000000e+01
    1.008000000000e+05 4.000000000000e+00
16 20  9 28  6  0  0.0-2.150340005755e-04-5.115907697473e-12 0.000000000000e+00
    3.800000000000e+01-2.300000000000e+01 4.368753404686e-09 1.792063793713e+00
   -1.119449734688e-06 1.157676137518e-02 8.532777428627e-06 5.153577339172e+03
    1.080000000000e+05-2.756714820862e-07-1.191178061690e+00 1.098960638046e-07
    9.766173690392e-01 2.273125000000e+02 6.273035997014e-01-7.933901907432e-09
   -4.621621080497e-10 1.000000000000e+00 2.125000000000e+03 0.000000000000e+00
    2.400000000000e+00 0.000000000000e+00-1.071020960808e-08 3.800000000000e+01
    1.008000000000e+05 4.000000000000e+00
11 20  9 28  6  0  0.0-1.520738005638e-04 1.057287590811e-11 0.000000000000e+00
    4.200000000000e+01 9.909375000000e+01 5.576303704003e-09-1.793081424399e+00
    5.267560482025e-06 1.588537113275e-02 5.636364221573e-06 5.153726659775e+03
    1.080000000000e+05-2.179294824600e-07 3.385340819205e-01 3.203749656677e-07
    9.136971029918e-01 2.484062500000e+02 2.049408748592e+00-8.726434919613e-09
    1.842933908452e-10 1.000000000000e+00 2.125000000000e+03 0.000000000000e+00
    2.400000000000e+00 0.000000000000e+00-1.210719347000e-08 4.200000000000e+01
    1.008000000000e+05 4.000000000000e+00
10 20  9 28  6  0  0.0-4.659616388381e-04-9.663381206337e-12 0.000000000000e+00
    9.700000000000e+01-9.103125000000e+01 4.284107021682e-09 3.029986672821e+00
   -4.712492227554e-06 5.943882628344e-03 6.278976798058e-06 5.153671152115e+03
    1.080000000000e+05-3.725290298462e-08 1.858074348392e+00-5.587935447693e-08
    9.665270744522e-01 2.614687500000e+02-2.663162253912e+00-7.975689362333e-09
   -2.357241045694e-10 1.000000000000e+00 2.125000000000e+03 0.000000000000e+00
    2.400000000000e+00 0.000000000000e+00 2.328306436539e-09 9.700000000000e+01
    1.008000000000e+05 4.000000000000e+00
